1 29155U 06018A   12021.24626499 -.00000263 +00000-0 +10000-3 0 09159
2 29155 000.3801 081.1167 0001663 309.7629 103.2252 01.00272861020769